<?xml version="1.0" encoding="utf-8" ?>
<gpx version="1.1" creator="Fietsknoop - https://www.fietsknoop.nl" xmlns="http://www.topografix.com/GPX/1/1" xmlns:xsi="http://www.w3.org/2001/XMLSchema-instance" xsi:schemaLocation="http://www.topografix.com/GPX/1/1 http://www.topografix.com/GPX/1/1/gpx.xsd">
<metadata><name>Landelijke Fietsroute Start Helmond</name><author><name>Fietsknoop</name></author></metadata>
<wpt lat="51.496261" lon="5.652529">
  <name>5</name>
  <desc>Sch sl Nr 7, 5702 Helmond</desc>
</wpt>
<wpt lat="51.494295" lon="5.640171">
  <name>6</name>
  <desc>De Grote Overbrug 5A, 5707 LH Helmond</desc>
</wpt>
<wpt lat="51.474951" lon="5.632843">
  <name>3</name>
  <desc>Hortsedijk 11, 5708 HA Helmond</desc>
</wpt>
<wpt lat="51.490679" lon="5.610991">
  <name>61</name>
  <desc>Lieshoutseweg 47, 5708 CW Helmond</desc>
</wpt>
<wpt lat="51.483892" lon="5.604456">
  <name>62</name>
  <desc>Cav-Weg 4, 5708 EM Helmond</desc>
</wpt>
<wpt lat="51.467134" lon="5.608515">
  <name>47</name>
  <desc>Medevoort 29, 5707 DD Helmond</desc>
</wpt>
<wpt lat="51.454487" lon="5.594117">
  <name>82</name>
  <desc>Broekstraat 79, 5731 RA Mierlo</desc>
</wpt>
<wpt lat="51.448141" lon="5.603509">
  <name>83</name>
  <desc>Broekstraat 24, 5731 RB Mierlo</desc>
</wpt>
<wpt lat="51.445603" lon="5.577208">
  <name>36</name>
  <desc>Vamweg, 5731 Mierlo</desc>
</wpt>
<wpt lat="51.431613" lon="5.541073">
  <name>77</name>
  <desc>Urkhovenseweg, Eindhoven</desc>
</wpt>
<wpt lat="51.445758" lon="5.536803">
  <name>75</name>
  <desc>Collseweg 1, 5641 JN Eindhoven</desc>
</wpt>
<wpt lat="51.450448" lon="5.527617">
  <name>99</name>
  <desc>Loostraat 3, 5641 JR Eindhoven</desc>
</wpt>
<wpt lat="51.460378" lon="5.529921">
  <name>35</name>
  <desc>Opwettenseweg 197, 5674 AC Nuenen</desc>
</wpt>
<wpt lat="51.467913" lon="5.520593">
  <name>81</name>
  <desc>Boord 57, 5674 NC Nuenen</desc>
</wpt>
<wpt lat="51.470928" lon="5.514684">
  <name>80</name>
  <desc>Boord 85, 5674 NC Nuenen</desc>
</wpt>
<wpt lat="51.468183" lon="5.506216">
  <name>98</name>
  <desc>Willem Hikspoorsbrug, 5632 Eindhoven</desc>
</wpt>
<wpt lat="51.489794" lon="5.50473">
  <name>8</name>
  <desc>Bokt 11, 5633 BG Eindhoven</desc>
</wpt>
<wpt lat="51.504822" lon="5.496548">
  <name>9</name>
  <desc>Kanaaldijk Zuid 1B, 5691 NL Son</desc>
</wpt>
<wpt lat="51.511186" lon="5.493475">
  <name>43</name>
  <desc>Nieuwstraat 28, 5691 AC Son</desc>
</wpt>
<wpt lat="51.521049" lon="5.502811">
  <name>40</name>
  <desc>Planetenlaan, 5694 Breugel</desc>
</wpt>
<wpt lat="51.530119" lon="5.489888">
  <name>51</name>
  <desc>Wolfswinkel 1, 5491 PP Sint-Oedenrode</desc>
</wpt>
<wpt lat="51.54212" lon="5.50178">
  <name>52</name>
  <desc>Vresselseweg 18, 5491 PC Sint-Oedenrode</desc>
</wpt>
<wpt lat="51.555115" lon="5.525308">
  <name>23</name>
  <desc>Lieshoutseweg 80, 5491 RR Sint-Oedenrode</desc>
</wpt>
<wpt lat="51.54065" lon="5.567451">
  <name>68</name>
  <desc>Bernadettestraat 18, 5738 AX Mariahout</desc>
</wpt>
<wpt lat="51.517727" lon="5.594812">
  <name>71</name>
  <desc>Heuvel 15, 5737 BZ Lieshout</desc>
</wpt>
<wpt lat="51.51357" lon="5.606901">
  <name>63</name>
  <desc>Provinciale Weg 2, 5737 GH Lieshout</desc>
</wpt>
<wpt lat="51.515099" lon="5.623788">
  <name>93</name>
  <desc>Wilhelminaweg, 5735 Aarle-Rixtel</desc>
</wpt>
<wpt lat="51.509674" lon="5.637694">
  <name>59</name>
  <desc>Kouwenberg 1, 5735 GM Aarle-Rixtel</desc>
</wpt>
<wpt lat="51.512587" lon="5.651264">
  <name>44</name>
  <desc>Havenweg 3, 5735 SH Aarle-Rixtel</desc>
</wpt>
<wpt lat="51.504051" lon="5.652927">
  <name>7</name>
  <desc>Havenweg 23, 5735 SH Aarle-Rixtel</desc>
</wpt>
<trk>
  <name>Landelijke Fietsroute Start Helmond</name>
  <trkseg>
    <trkpt lat="51.496261" lon="5.652529"></trkpt>
    <trkpt lat="51.496234" lon="5.651994"></trkpt>
    <trkpt lat="51.494791" lon="5.651887"></trkpt>
    <trkpt lat="51.493348" lon="5.651779"></trkpt>
    <trkpt lat="51.493642" lon="5.650942"></trkpt>
    <trkpt lat="51.494557" lon="5.649483"></trkpt>
    <trkpt lat="51.494844" lon="5.648936"></trkpt>
    <trkpt lat="51.495158" lon="5.64752"></trkpt>
    <trkpt lat="51.495212" lon="5.646908"></trkpt>
    <trkpt lat="51.495091" lon="5.646136"></trkpt>
    <trkpt lat="51.495091" lon="5.645567"></trkpt>
    <trkpt lat="51.495031" lon="5.645342"></trkpt>
    <trkpt lat="51.495058" lon="5.644838"></trkpt>
    <trkpt lat="51.495145" lon="5.644763"></trkpt>
    <trkpt lat="51.495459" lon="5.641952"></trkpt>
    <trkpt lat="51.494971" lon="5.641716"></trkpt>
    <trkpt lat="51.494295" lon="5.640171"></trkpt>
    <trkpt lat="51.494295" lon="5.640171"></trkpt>
    <trkpt lat="51.494121" lon="5.640251"></trkpt>
    <trkpt lat="51.492722" lon="5.638701"></trkpt>
    <trkpt lat="51.492528" lon="5.638304"></trkpt>
    <trkpt lat="51.492137" lon="5.637848"></trkpt>
    <trkpt lat="51.49189" lon="5.637875"></trkpt>
    <trkpt lat="51.4919" lon="5.63736"></trkpt>
    <trkpt lat="51.491713" lon="5.636925"></trkpt>
    <trkpt lat="51.491696" lon="5.636292"></trkpt>
    <trkpt lat="51.491142" lon="5.636281"></trkpt>
    <trkpt lat="51.490988" lon="5.636464"></trkpt>
    <trkpt lat="51.490688" lon="5.636582"></trkpt>
    <trkpt lat="51.490474" lon="5.638159"></trkpt>
    <trkpt lat="51.488973" lon="5.637722"></trkpt>
    <trkpt lat="51.487471" lon="5.637285"></trkpt>
    <trkpt lat="51.487297" lon="5.638593"></trkpt>
    <trkpt lat="51.487037" lon="5.639484"></trkpt>
    <trkpt lat="51.48705" lon="5.639763"></trkpt>
    <trkpt lat="51.48715" lon="5.640026"></trkpt>
    <trkpt lat="51.486957" lon="5.640471"></trkpt>
    <trkpt lat="51.486486" lon="5.640294"></trkpt>
    <trkpt lat="51.486609" lon="5.639575"></trkpt>
    <trkpt lat="51.485757" lon="5.639079"></trkpt>
    <trkpt lat="51.484904" lon="5.638583"></trkpt>
    <trkpt lat="51.48463" lon="5.638357"></trkpt>
    <trkpt lat="51.483613" lon="5.639087"></trkpt>
    <trkpt lat="51.483432" lon="5.638443"></trkpt>
    <trkpt lat="51.483202" lon="5.638003"></trkpt>
    <trkpt lat="51.482774" lon="5.637558"></trkpt>
    <trkpt lat="51.482083" lon="5.637172"></trkpt>
    <trkpt lat="51.481528" lon="5.637081"></trkpt>
    <trkpt lat="51.4816" lon="5.635177"></trkpt>
    <trkpt lat="51.481672" lon="5.633272"></trkpt>
    <trkpt lat="51.481416" lon="5.63325"></trkpt>
    <trkpt lat="51.480237" lon="5.633728"></trkpt>
    <trkpt lat="51.479058" lon="5.634205"></trkpt>
    <trkpt lat="51.477581" lon="5.635804"></trkpt>
    <trkpt lat="51.476806" lon="5.636094"></trkpt>
    <trkpt lat="51.476064" lon="5.636898"></trkpt>
    <trkpt lat="51.475807" lon="5.636137"></trkpt>
    <trkpt lat="51.475346" lon="5.633937"></trkpt>
    <trkpt lat="51.474951" lon="5.632843"></trkpt>
    <trkpt lat="51.474951" lon="5.632843"></trkpt>
    <trkpt lat="51.475656" lon="5.631878"></trkpt>
    <trkpt lat="51.476361" lon="5.630912"></trkpt>
    <trkpt lat="51.476682" lon="5.630665"></trkpt>
    <trkpt lat="51.477588" lon="5.630488"></trkpt>
    <trkpt lat="51.478493" lon="5.630311"></trkpt>
    <trkpt lat="51.479408" lon="5.629708"></trkpt>
    <trkpt lat="51.480323" lon="5.629104"></trkpt>
    <trkpt lat="51.481238" lon="5.628501"></trkpt>
    <trkpt lat="51.482152" lon="5.627897"></trkpt>
    <trkpt lat="51.483371" lon="5.627092"></trkpt>
    <trkpt lat="51.483598" lon="5.627918"></trkpt>
    <trkpt lat="51.484914" lon="5.627017"></trkpt>
    <trkpt lat="51.485252" lon="5.628546"></trkpt>
    <trkpt lat="51.48559" lon="5.630075"></trkpt>
    <trkpt lat="51.485794" lon="5.630182"></trkpt>
    <trkpt lat="51.486135" lon="5.630161"></trkpt>
    <trkpt lat="51.48744" lon="5.629536"></trkpt>
    <trkpt lat="51.488744" lon="5.628911"></trkpt>
    <trkpt lat="51.489975" lon="5.628514"></trkpt>
    <trkpt lat="51.491205" lon="5.628117"></trkpt>
    <trkpt lat="51.491212" lon="5.625365"></trkpt>
    <trkpt lat="51.491149" lon="5.623133"></trkpt>
    <trkpt lat="51.491052" lon="5.622886"></trkpt>
    <trkpt lat="51.489953" lon="5.62184"></trkpt>
    <trkpt lat="51.489011" lon="5.623541"></trkpt>
    <trkpt lat="51.488677" lon="5.623729"></trkpt>
    <trkpt lat="51.488573" lon="5.62368"></trkpt>
    <trkpt lat="51.488276" lon="5.62287"></trkpt>
    <trkpt lat="51.487788" lon="5.622001"></trkpt>
    <trkpt lat="51.486843" lon="5.620065"></trkpt>
    <trkpt lat="51.486178" lon="5.619201"></trkpt>
    <trkpt lat="51.486833" lon="5.61675"></trkpt>
    <trkpt lat="51.487364" lon="5.615382"></trkpt>
    <trkpt lat="51.487565" lon="5.615339"></trkpt>
    <trkpt lat="51.487698" lon="5.615773"></trkpt>
    <trkpt lat="51.488699" lon="5.616723"></trkpt>
    <trkpt lat="51.489699" lon="5.617672"></trkpt>
    <trkpt lat="51.490736" lon="5.615545"></trkpt>
    <trkpt lat="51.491773" lon="5.613418"></trkpt>
    <trkpt lat="51.491339" lon="5.612163"></trkpt>
    <trkpt lat="51.490679" lon="5.610991"></trkpt>
    <trkpt lat="51.490679" lon="5.610991"></trkpt>
    <trkpt lat="51.489483" lon="5.609233"></trkpt>
    <trkpt lat="51.489017" lon="5.608783"></trkpt>
    <trkpt lat="51.4888" lon="5.608433"></trkpt>
    <trkpt lat="51.488017" lon="5.609217"></trkpt>
    <trkpt lat="51.487233" lon="5.61"></trkpt>
    <trkpt lat="51.487" lon="5.609717"></trkpt>
    <trkpt lat="51.486775" lon="5.607992"></trkpt>
    <trkpt lat="51.48655" lon="5.606267"></trkpt>
    <trkpt lat="51.48655" lon="5.605117"></trkpt>
    <trkpt lat="51.485617" lon="5.604233"></trkpt>
    <trkpt lat="51.48495" lon="5.6043"></trkpt>
    <trkpt lat="51.484717" lon="5.60405"></trkpt>
    <trkpt lat="51.483892" lon="5.604456"></trkpt>
    <trkpt lat="51.483892" lon="5.604456"></trkpt>
    <trkpt lat="51.482877" lon="5.605131"></trkpt>
    <trkpt lat="51.481861" lon="5.605806"></trkpt>
    <trkpt lat="51.480818" lon="5.606246"></trkpt>
    <trkpt lat="51.480337" lon="5.607244"></trkpt>
    <trkpt lat="51.480691" lon="5.607898"></trkpt>
    <trkpt lat="51.480564" lon="5.608499"></trkpt>
    <trkpt lat="51.480344" lon="5.608864"></trkpt>
    <trkpt lat="51.478946" lon="5.608872"></trkpt>
    <trkpt lat="51.477898" lon="5.608878"></trkpt>
    <trkpt lat="51.476849" lon="5.608884"></trkpt>
    <trkpt lat="51.4758" lon="5.60889"></trkpt>
    <trkpt lat="51.474751" lon="5.608896"></trkpt>
    <trkpt lat="51.473989" lon="5.609379"></trkpt>
    <trkpt lat="51.473688" lon="5.608681"></trkpt>
    <trkpt lat="51.473307" lon="5.607083"></trkpt>
    <trkpt lat="51.473167" lon="5.606675"></trkpt>
    <trkpt lat="51.47292" lon="5.606343"></trkpt>
    <trkpt lat="51.472365" lon="5.606246"></trkpt>
    <trkpt lat="51.470718" lon="5.607051"></trkpt>
    <trkpt lat="51.46907" lon="5.607855"></trkpt>
    <trkpt lat="51.468302" lon="5.608467"></trkpt>
    <trkpt lat="51.467134" lon="5.608515"></trkpt>
    <trkpt lat="51.467134" lon="5.608515"></trkpt>
    <trkpt lat="51.46716" lon="5.606962"></trkpt>
    <trkpt lat="51.467186" lon="5.605409"></trkpt>
    <trkpt lat="51.467072" lon="5.604991"></trkpt>
    <trkpt lat="51.467152" lon="5.604787"></trkpt>
    <trkpt lat="51.467165" lon="5.603371"></trkpt>
    <trkpt lat="51.466388" lon="5.602583"></trkpt>
    <trkpt lat="51.465611" lon="5.601794"></trkpt>
    <trkpt lat="51.464834" lon="5.601005"></trkpt>
    <trkpt lat="51.464057" lon="5.600216"></trkpt>
    <trkpt lat="51.4631" lon="5.600812"></trkpt>
    <trkpt lat="51.462143" lon="5.601407"></trkpt>
    <trkpt lat="51.461186" lon="5.602003"></trkpt>
    <trkpt lat="51.460228" lon="5.602598"></trkpt>
    <trkpt lat="51.458951" lon="5.603392"></trkpt>
    <trkpt lat="51.458752" lon="5.602115"></trkpt>
    <trkpt lat="51.458715" lon="5.601177"></trkpt>
    <trkpt lat="51.458456" lon="5.599624"></trkpt>
    <trkpt lat="51.458197" lon="5.598071"></trkpt>
    <trkpt lat="51.457435" lon="5.598124"></trkpt>
    <trkpt lat="51.457124" lon="5.597904"></trkpt>
    <trkpt lat="51.456877" lon="5.597545"></trkpt>
    <trkpt lat="51.456065" lon="5.596236"></trkpt>
    <trkpt lat="51.455252" lon="5.594927"></trkpt>
    <trkpt lat="51.454487" lon="5.594117"></trkpt>
    <trkpt lat="51.454487" lon="5.594117"></trkpt>
    <trkpt lat="51.453767" lon="5.5937"></trkpt>
    <trkpt lat="51.452692" lon="5.594359"></trkpt>
    <trkpt lat="51.451617" lon="5.595017"></trkpt>
    <trkpt lat="51.450667" lon="5.59705"></trkpt>
    <trkpt lat="51.449717" lon="5.599083"></trkpt>
    <trkpt lat="51.449167" lon="5.60145"></trkpt>
    <trkpt lat="51.448141" lon="5.603509"></trkpt>
    <trkpt lat="51.448141" lon="5.603509"></trkpt>
    <trkpt lat="51.447988" lon="5.601952"></trkpt>
    <trkpt lat="51.447834" lon="5.600394"></trkpt>
    <trkpt lat="51.447681" lon="5.598836"></trkpt>
    <trkpt lat="51.447527" lon="5.597278"></trkpt>
    <trkpt lat="51.447374" lon="5.595721"></trkpt>
    <trkpt lat="51.44722" lon="5.594163"></trkpt>
    <trkpt lat="51.447066" lon="5.592605"></trkpt>
    <trkpt lat="51.446912" lon="5.591047"></trkpt>
    <trkpt lat="51.446759" lon="5.58949"></trkpt>
    <trkpt lat="51.446605" lon="5.587932"></trkpt>
    <trkpt lat="51.446452" lon="5.586374"></trkpt>
    <trkpt lat="51.446298" lon="5.584816"></trkpt>
    <trkpt lat="51.446145" lon="5.583258"></trkpt>
    <trkpt lat="51.445991" lon="5.5817"></trkpt>
    <trkpt lat="51.445837" lon="5.580142"></trkpt>
    <trkpt lat="51.445683" lon="5.578584"></trkpt>
    <trkpt lat="51.445603" lon="5.577208"></trkpt>
    <trkpt lat="51.445603" lon="5.577208"></trkpt>
    <trkpt lat="51.445229" lon="5.575719"></trkpt>
    <trkpt lat="51.444855" lon="5.574229"></trkpt>
    <trkpt lat="51.444368" lon="5.572994"></trkpt>
    <trkpt lat="51.443881" lon="5.571759"></trkpt>
    <trkpt lat="51.443394" lon="5.570524"></trkpt>
    <trkpt lat="51.442906" lon="5.569288"></trkpt>
    <trkpt lat="51.442419" lon="5.568053"></trkpt>
    <trkpt lat="51.441932" lon="5.566818"></trkpt>
    <trkpt lat="51.441445" lon="5.565583"></trkpt>
    <trkpt lat="51.440957" lon="5.564347"></trkpt>
    <trkpt lat="51.440983" lon="5.56335"></trkpt>
    <trkpt lat="51.440816" lon="5.562995"></trkpt>
    <trkpt lat="51.440629" lon="5.562985"></trkpt>
    <trkpt lat="51.440442" lon="5.563081"></trkpt>
    <trkpt lat="51.439906" lon="5.561699"></trkpt>
    <trkpt lat="51.439369" lon="5.560316"></trkpt>
    <trkpt lat="51.438833" lon="5.558933"></trkpt>
    <trkpt lat="51.438296" lon="5.55755"></trkpt>
    <trkpt lat="51.43776" lon="5.556167"></trkpt>
    <trkpt lat="51.437223" lon="5.554784"></trkpt>
    <trkpt lat="51.436686" lon="5.553401"></trkpt>
    <trkpt lat="51.436149" lon="5.552018"></trkpt>
    <trkpt lat="51.435613" lon="5.550636"></trkpt>
    <trkpt lat="51.435076" lon="5.549253"></trkpt>
    <trkpt lat="51.43454" lon="5.54787"></trkpt>
    <trkpt lat="51.434003" lon="5.546487"></trkpt>
    <trkpt lat="51.433467" lon="5.545104"></trkpt>
    <trkpt lat="51.43293" lon="5.543721"></trkpt>
    <trkpt lat="51.432393" lon="5.542338"></trkpt>
    <trkpt lat="51.431856" lon="5.540955"></trkpt>
    <trkpt lat="51.431613" lon="5.541073"></trkpt>
    <trkpt lat="51.431613" lon="5.541073"></trkpt>
    <trkpt lat="51.432623" lon="5.539578"></trkpt>
    <trkpt lat="51.433633" lon="5.538083"></trkpt>
    <trkpt lat="51.434433" lon="5.5372"></trkpt>
    <trkpt lat="51.435233" lon="5.536317"></trkpt>
    <trkpt lat="51.436242" lon="5.536125"></trkpt>
    <trkpt lat="51.43725" lon="5.535933"></trkpt>
    <trkpt lat="51.438167" lon="5.5354"></trkpt>
    <trkpt lat="51.439433" lon="5.534033"></trkpt>
    <trkpt lat="51.440233" lon="5.533383"></trkpt>
    <trkpt lat="51.441758" lon="5.53385"></trkpt>
    <trkpt lat="51.443283" lon="5.534317"></trkpt>
    <trkpt lat="51.443817" lon="5.53425"></trkpt>
    <trkpt lat="51.444667" lon="5.534983"></trkpt>
    <trkpt lat="51.445758" lon="5.536803"></trkpt>
    <trkpt lat="51.445758" lon="5.536803"></trkpt>
    <trkpt lat="51.445817" lon="5.536633"></trkpt>
    <trkpt lat="51.446621" lon="5.535413"></trkpt>
    <trkpt lat="51.447425" lon="5.534192"></trkpt>
    <trkpt lat="51.448229" lon="5.532971"></trkpt>
    <trkpt lat="51.449033" lon="5.53175"></trkpt>
    <trkpt lat="51.44975" lon="5.5302"></trkpt>
    <trkpt lat="51.450448" lon="5.527617"></trkpt>
    <trkpt lat="51.450448" lon="5.527617"></trkpt>
    <trkpt lat="51.451002" lon="5.527968"></trkpt>
    <trkpt lat="51.451406" lon="5.528548"></trkpt>
    <trkpt lat="51.452008" lon="5.529744"></trkpt>
    <trkpt lat="51.452135" lon="5.529798"></trkpt>
    <trkpt lat="51.453596" lon="5.529068"></trkpt>
    <trkpt lat="51.454187" lon="5.529143"></trkpt>
    <trkpt lat="51.454421" lon="5.528655"></trkpt>
    <trkpt lat="51.454441" lon="5.526322"></trkpt>
    <trkpt lat="51.454669" lon="5.525699"></trkpt>
    <trkpt lat="51.454612" lon="5.525233"></trkpt>
    <trkpt lat="51.45517" lon="5.525045"></trkpt>
    <trkpt lat="51.455618" lon="5.525463"></trkpt>
    <trkpt lat="51.456153" lon="5.526633"></trkpt>
    <trkpt lat="51.457407" lon="5.527424"></trkpt>
    <trkpt lat="51.45866" lon="5.528214"></trkpt>
    <trkpt lat="51.459495" lon="5.528741"></trkpt>
    <trkpt lat="51.460378" lon="5.529921"></trkpt>
    <trkpt lat="51.460378" lon="5.529921"></trkpt>
    <trkpt lat="51.460984" lon="5.531209"></trkpt>
    <trkpt lat="51.461589" lon="5.532496"></trkpt>
    <trkpt lat="51.462194" lon="5.533784"></trkpt>
    <trkpt lat="51.462799" lon="5.535071"></trkpt>
    <trkpt lat="51.463606" lon="5.536788"></trkpt>
    <trkpt lat="51.464515" lon="5.537539"></trkpt>
    <trkpt lat="51.465424" lon="5.53829"></trkpt>
    <trkpt lat="51.465912" lon="5.536755"></trkpt>
    <trkpt lat="51.465917" lon="5.536424"></trkpt>
    <trkpt lat="51.466853" lon="5.536044"></trkpt>
    <trkpt lat="51.466976" lon="5.535923"></trkpt>
    <trkpt lat="51.468148" lon="5.535407"></trkpt>
    <trkpt lat="51.468098" lon="5.534331"></trkpt>
    <trkpt lat="51.468339" lon="5.534234"></trkpt>
    <trkpt lat="51.468085" lon="5.532292"></trkpt>
    <trkpt lat="51.467784" lon="5.530511"></trkpt>
    <trkpt lat="51.467798" lon="5.529437"></trkpt>
    <trkpt lat="51.467581" lon="5.528762"></trkpt>
    <trkpt lat="51.467368" lon="5.526486"></trkpt>
    <trkpt lat="51.467307" lon="5.524908"></trkpt>
    <trkpt lat="51.467392" lon="5.524354"></trkpt>
    <trkpt lat="51.467382" lon="5.523959"></trkpt>
    <trkpt lat="51.467269" lon="5.523421"></trkpt>
    <trkpt lat="51.467198" lon="5.520947"></trkpt>
    <trkpt lat="51.467619" lon="5.520644"></trkpt>
    <trkpt lat="51.467913" lon="5.520593"></trkpt>
    <trkpt lat="51.467913" lon="5.520593"></trkpt>
    <trkpt lat="51.4681" lon="5.5196"></trkpt>
    <trkpt lat="51.46875" lon="5.518017"></trkpt>
    <trkpt lat="51.469484" lon="5.5168"></trkpt>
    <trkpt lat="51.470217" lon="5.515583"></trkpt>
    <trkpt lat="51.470928" lon="5.514684"></trkpt>
    <trkpt lat="51.470928" lon="5.514684"></trkpt>
    <trkpt lat="51.470283" lon="5.513017"></trkpt>
    <trkpt lat="51.4697" lon="5.511717"></trkpt>
    <trkpt lat="51.469117" lon="5.510417"></trkpt>
    <trkpt lat="51.468583" lon="5.508867"></trkpt>
    <trkpt lat="51.46805" lon="5.506783"></trkpt>
    <trkpt lat="51.468183" lon="5.506216"></trkpt>
    <trkpt lat="51.468183" lon="5.506216"></trkpt>
    <trkpt lat="51.468867" lon="5.506124"></trkpt>
    <trkpt lat="51.469201" lon="5.505921"></trkpt>
    <trkpt lat="51.470025" lon="5.50517"></trkpt>
    <trkpt lat="51.470849" lon="5.504419"></trkpt>
    <trkpt lat="51.471673" lon="5.503668"></trkpt>
    <trkpt lat="51.472496" lon="5.502917"></trkpt>
    <trkpt lat="51.473415" lon="5.502563"></trkpt>
    <trkpt lat="51.474333" lon="5.502208"></trkpt>
    <trkpt lat="51.475322" lon="5.503603"></trkpt>
    <trkpt lat="51.475717" lon="5.505062"></trkpt>
    <trkpt lat="51.47593" lon="5.505309"></trkpt>
    <trkpt lat="51.476385" lon="5.505191"></trkpt>
    <trkpt lat="51.477481" lon="5.505475"></trkpt>
    <trkpt lat="51.477681" lon="5.505685"></trkpt>
    <trkpt lat="51.478273" lon="5.505728"></trkpt>
    <trkpt lat="51.47849" lon="5.505465"></trkpt>
    <trkpt lat="51.479398" lon="5.505019"></trkpt>
    <trkpt lat="51.48" lon="5.504955"></trkpt>
    <trkpt lat="51.4803" lon="5.505121"></trkpt>
    <trkpt lat="51.480645" lon="5.50517"></trkpt>
    <trkpt lat="51.481309" lon="5.504918"></trkpt>
    <trkpt lat="51.481533" lon="5.505078"></trkpt>
    <trkpt lat="51.481981" lon="5.504901"></trkpt>
    <trkpt lat="51.482148" lon="5.504751"></trkpt>
    <trkpt lat="51.482646" lon="5.504735"></trkpt>
    <trkpt lat="51.482883" lon="5.504805"></trkpt>
    <trkpt lat="51.483297" lon="5.505089"></trkpt>
    <trkpt lat="51.483414" lon="5.505095"></trkpt>
    <trkpt lat="51.483521" lon="5.504977"></trkpt>
    <trkpt lat="51.483608" lon="5.504767"></trkpt>
    <trkpt lat="51.484654" lon="5.504958"></trkpt>
    <trkpt lat="51.485699" lon="5.505148"></trkpt>
    <trkpt lat="51.485859" lon="5.504741"></trkpt>
    <trkpt lat="51.486447" lon="5.50473"></trkpt>
    <trkpt lat="51.486922" lon="5.50562"></trkpt>
    <trkpt lat="51.487363" lon="5.505878"></trkpt>
    <trkpt lat="51.488131" lon="5.505652"></trkpt>
    <trkpt lat="51.489794" lon="5.50473"></trkpt>
    <trkpt lat="51.489794" lon="5.50473"></trkpt>
    <trkpt lat="51.49007" lon="5.50597"></trkpt>
    <trkpt lat="51.490471" lon="5.506721"></trkpt>
    <trkpt lat="51.490745" lon="5.506861"></trkpt>
    <trkpt lat="51.492201" lon="5.506174"></trkpt>
    <trkpt lat="51.49272" lon="5.506453"></trkpt>
    <trkpt lat="51.493041" lon="5.506442"></trkpt>
    <trkpt lat="51.493302" lon="5.506174"></trkpt>
    <trkpt lat="51.493679" lon="5.505297"></trkpt>
    <trkpt lat="51.49414" lon="5.504771"></trkpt>
    <trkpt lat="51.494841" lon="5.50446"></trkpt>
    <trkpt lat="51.495616" lon="5.504353"></trkpt>
    <trkpt lat="51.496137" lon="5.50402"></trkpt>
    <trkpt lat="51.497123" lon="5.502416"></trkpt>
    <trkpt lat="51.498108" lon="5.500812"></trkpt>
    <trkpt lat="51.499657" lon="5.499911"></trkpt>
    <trkpt lat="51.500793" lon="5.498972"></trkpt>
    <trkpt lat="51.501928" lon="5.498033"></trkpt>
    <trkpt lat="51.503224" lon="5.497143"></trkpt>
    <trkpt lat="51.503391" lon="5.496842"></trkpt>
    <trkpt lat="51.503718" lon="5.496735"></trkpt>
    <trkpt lat="51.504822" lon="5.496548"></trkpt>
    <trkpt lat="51.504822" lon="5.496548"></trkpt>
    <trkpt lat="51.505083" lon="5.496077"></trkpt>
    <trkpt lat="51.505176" lon="5.495433"></trkpt>
    <trkpt lat="51.50508" lon="5.493937"></trkpt>
    <trkpt lat="51.504983" lon="5.49244"></trkpt>
    <trkpt lat="51.506245" lon="5.492113"></trkpt>
    <trkpt lat="51.507621" lon="5.491898"></trkpt>
    <trkpt lat="51.508262" lon="5.492016"></trkpt>
    <trkpt lat="51.509724" lon="5.492746"></trkpt>
    <trkpt lat="51.511186" lon="5.493475"></trkpt>
    <trkpt lat="51.511186" lon="5.493475"></trkpt>
    <trkpt lat="51.510859" lon="5.494092"></trkpt>
    <trkpt lat="51.511287" lon="5.496345"></trkpt>
    <trkpt lat="51.511413" lon="5.498223"></trkpt>
    <trkpt lat="51.512228" lon="5.4976"></trkpt>
    <trkpt lat="51.512796" lon="5.499001"></trkpt>
    <trkpt lat="51.513363" lon="5.500401"></trkpt>
    <trkpt lat="51.513537" lon="5.500261"></trkpt>
    <trkpt lat="51.514031" lon="5.50113"></trkpt>
    <trkpt lat="51.514792" lon="5.503319"></trkpt>
    <trkpt lat="51.515119" lon="5.503641"></trkpt>
    <trkpt lat="51.515466" lon="5.503458"></trkpt>
    <trkpt lat="51.515633" lon="5.503555"></trkpt>
    <trkpt lat="51.516134" lon="5.505057"></trkpt>
    <trkpt lat="51.516681" lon="5.505357"></trkpt>
    <trkpt lat="51.517599" lon="5.504564"></trkpt>
    <trkpt lat="51.518517" lon="5.50377"></trkpt>
    <trkpt lat="51.520086" lon="5.503201"></trkpt>
    <trkpt lat="51.5203" lon="5.503297"></trkpt>
    <trkpt lat="51.520714" lon="5.5029"></trkpt>
    <trkpt lat="51.521049" lon="5.502811"></trkpt>
    <trkpt lat="51.521049" lon="5.502811"></trkpt>
    <trkpt lat="51.521148" lon="5.500395"></trkpt>
    <trkpt lat="51.521575" lon="5.498931"></trkpt>
    <trkpt lat="51.522002" lon="5.497466"></trkpt>
    <trkpt lat="51.522036" lon="5.496898"></trkpt>
    <trkpt lat="51.521911" lon="5.494685"></trkpt>
    <trkpt lat="51.521785" lon="5.492472"></trkpt>
    <trkpt lat="51.521839" lon="5.492338"></trkpt>
    <trkpt lat="51.522126" lon="5.492306"></trkpt>
    <trkpt lat="51.522206" lon="5.492139"></trkpt>
    <trkpt lat="51.522179" lon="5.491871"></trkpt>
    <trkpt lat="51.523172" lon="5.491624"></trkpt>
    <trkpt lat="51.524164" lon="5.491376"></trkpt>
    <trkpt lat="51.525157" lon="5.491128"></trkpt>
    <trkpt lat="51.526149" lon="5.49088"></trkpt>
    <trkpt lat="51.527142" lon="5.490632"></trkpt>
    <trkpt lat="51.528134" lon="5.490384"></trkpt>
    <trkpt lat="51.529127" lon="5.490136"></trkpt>
    <trkpt lat="51.530119" lon="5.489888"></trkpt>
    <trkpt lat="51.530119" lon="5.489888"></trkpt>
    <trkpt lat="51.5303" lon="5.49111"></trkpt>
    <trkpt lat="51.53075" lon="5.493335"></trkpt>
    <trkpt lat="51.5312" lon="5.49556"></trkpt>
    <trkpt lat="51.5321" lon="5.49581"></trkpt>
    <trkpt lat="51.53238" lon="5.4961"></trkpt>
    <trkpt lat="51.53403" lon="5.49605"></trkpt>
    <trkpt lat="51.5346" lon="5.4964"></trkpt>
    <trkpt lat="51.53527" lon="5.49726"></trkpt>
    <trkpt lat="51.53631" lon="5.49765"></trkpt>
    <trkpt lat="51.53735" lon="5.49804"></trkpt>
    <trkpt lat="51.538315" lon="5.498325"></trkpt>
    <trkpt lat="51.53928" lon="5.49861"></trkpt>
    <trkpt lat="51.54028" lon="5.49976"></trkpt>
    <trkpt lat="51.54064" lon="5.49988"></trkpt>
    <trkpt lat="51.54138" lon="5.50083"></trkpt>
    <trkpt lat="51.54212" lon="5.50178"></trkpt>
    <trkpt lat="51.54212" lon="5.50178"></trkpt>
    <trkpt lat="51.541272" lon="5.5023"></trkpt>
    <trkpt lat="51.540423" lon="5.50282"></trkpt>
    <trkpt lat="51.541144" lon="5.504666"></trkpt>
    <trkpt lat="51.541865" lon="5.506511"></trkpt>
    <trkpt lat="51.541311" lon="5.507949"></trkpt>
    <trkpt lat="51.540757" lon="5.509386"></trkpt>
    <trkpt lat="51.54143" lon="5.510419"></trkpt>
    <trkpt lat="51.542103" lon="5.511452"></trkpt>
    <trkpt lat="51.542776" lon="5.512485"></trkpt>
    <trkpt lat="51.543449" lon="5.513517"></trkpt>
    <trkpt lat="51.544122" lon="5.51455"></trkpt>
    <trkpt lat="51.544795" lon="5.515582"></trkpt>
    <trkpt lat="51.545468" lon="5.516615"></trkpt>
    <trkpt lat="51.54614" lon="5.517647"></trkpt>
    <trkpt lat="51.546909" lon="5.518827"></trkpt>
    <trkpt lat="51.547807" lon="5.519536"></trkpt>
    <trkpt lat="51.548705" lon="5.520245"></trkpt>
    <trkpt lat="51.549603" lon="5.520954"></trkpt>
    <trkpt lat="51.5505" lon="5.521663"></trkpt>
    <trkpt lat="51.551398" lon="5.522372"></trkpt>
    <trkpt lat="51.552295" lon="5.523081"></trkpt>
    <trkpt lat="51.553193" lon="5.52379"></trkpt>
    <trkpt lat="51.55409" lon="5.524498"></trkpt>
    <trkpt lat="51.555115" lon="5.525308"></trkpt>
    <trkpt lat="51.555115" lon="5.525308"></trkpt>
    <trkpt lat="51.554703" lon="5.526675"></trkpt>
    <trkpt lat="51.554291" lon="5.528042"></trkpt>
    <trkpt lat="51.553879" lon="5.529409"></trkpt>
    <trkpt lat="51.553467" lon="5.530775"></trkpt>
    <trkpt lat="51.553055" lon="5.532142"></trkpt>
    <trkpt lat="51.552643" lon="5.533508"></trkpt>
    <trkpt lat="51.552231" lon="5.534875"></trkpt>
    <trkpt lat="51.551819" lon="5.536241"></trkpt>
    <trkpt lat="51.551407" lon="5.537608"></trkpt>
    <trkpt lat="51.550995" lon="5.538974"></trkpt>
    <trkpt lat="51.550583" lon="5.540341"></trkpt>
    <trkpt lat="51.550171" lon="5.541707"></trkpt>
    <trkpt lat="51.549759" lon="5.543074"></trkpt>
    <trkpt lat="51.549347" lon="5.54444"></trkpt>
    <trkpt lat="51.548935" lon="5.545807"></trkpt>
    <trkpt lat="51.548523" lon="5.547173"></trkpt>
    <trkpt lat="51.548111" lon="5.54854"></trkpt>
    <trkpt lat="51.547699" lon="5.549907"></trkpt>
    <trkpt lat="51.547287" lon="5.551274"></trkpt>
    <trkpt lat="51.546875" lon="5.55264"></trkpt>
    <trkpt lat="51.546463" lon="5.554007"></trkpt>
    <trkpt lat="51.546051" lon="5.555373"></trkpt>
    <trkpt lat="51.545639" lon="5.55674"></trkpt>
    <trkpt lat="51.545227" lon="5.558106"></trkpt>
    <trkpt lat="51.544815" lon="5.559473"></trkpt>
    <trkpt lat="51.544403" lon="5.560839"></trkpt>
    <trkpt lat="51.543991" lon="5.562206"></trkpt>
    <trkpt lat="51.543579" lon="5.563572"></trkpt>
    <trkpt lat="51.543167" lon="5.564939"></trkpt>
    <trkpt lat="51.542755" lon="5.566305"></trkpt>
    <trkpt lat="51.542343" lon="5.567672"></trkpt>
    <trkpt lat="51.541931" lon="5.569038"></trkpt>
    <trkpt lat="51.54065" lon="5.567451"></trkpt>
    <trkpt lat="51.54065" lon="5.567451"></trkpt>
    <trkpt lat="51.539919" lon="5.566195"></trkpt>
    <trkpt lat="51.539188" lon="5.564938"></trkpt>
    <trkpt lat="51.538381" lon="5.563179"></trkpt>
    <trkpt lat="51.537573" lon="5.561419"></trkpt>
    <trkpt lat="51.536884" lon="5.559435"></trkpt>
    <trkpt lat="51.536194" lon="5.55745"></trkpt>
    <trkpt lat="51.535751" lon="5.556174"></trkpt>
    <trkpt lat="51.535308" lon="5.554898"></trkpt>
    <trkpt lat="51.534865" lon="5.553622"></trkpt>
    <trkpt lat="51.534422" lon="5.552345"></trkpt>
    <trkpt lat="51.533411" lon="5.552687"></trkpt>
    <trkpt lat="51.5324" lon="5.553028"></trkpt>
    <trkpt lat="51.531389" lon="5.55337"></trkpt>
    <trkpt lat="51.530378" lon="5.553711"></trkpt>
    <trkpt lat="51.530351" lon="5.553979"></trkpt>
    <trkpt lat="51.530625" lon="5.554419"></trkpt>
    <trkpt lat="51.531105" lon="5.555816"></trkpt>
    <trkpt lat="51.531585" lon="5.557212"></trkpt>
    <trkpt lat="51.532065" lon="5.558609"></trkpt>
    <trkpt lat="51.532545" lon="5.560005"></trkpt>
    <trkpt lat="51.533025" lon="5.561402"></trkpt>
    <trkpt lat="51.533505" lon="5.562798"></trkpt>
    <trkpt lat="51.533985" lon="5.564195"></trkpt>
    <trkpt lat="51.534465" lon="5.565591"></trkpt>
    <trkpt lat="51.53362" lon="5.567158"></trkpt>
    <trkpt lat="51.532879" lon="5.567673"></trkpt>
    <trkpt lat="51.531867" lon="5.567418"></trkpt>
    <trkpt lat="51.530854" lon="5.567162"></trkpt>
    <trkpt lat="51.530097" lon="5.568245"></trkpt>
    <trkpt lat="51.52934" lon="5.569328"></trkpt>
    <trkpt lat="51.528583" lon="5.570411"></trkpt>
    <trkpt lat="51.527826" lon="5.571493"></trkpt>
    <trkpt lat="51.527069" lon="5.572547"></trkpt>
    <trkpt lat="51.526311" lon="5.5736"></trkpt>
    <trkpt lat="51.525553" lon="5.574653"></trkpt>
    <trkpt lat="51.524795" lon="5.575706"></trkpt>
    <trkpt lat="51.524038" lon="5.576759"></trkpt>
    <trkpt lat="51.52328" lon="5.577812"></trkpt>
    <trkpt lat="51.522522" lon="5.578865"></trkpt>
    <trkpt lat="51.521764" lon="5.579918"></trkpt>
    <trkpt lat="51.520632" lon="5.581236"></trkpt>
    <trkpt lat="51.520331" lon="5.582749"></trkpt>
    <trkpt lat="51.519078" lon="5.583831"></trkpt>
    <trkpt lat="51.517825" lon="5.584912"></trkpt>
    <trkpt lat="51.518152" lon="5.586709"></trkpt>
    <trkpt lat="51.519014" lon="5.588029"></trkpt>
    <trkpt lat="51.517986" lon="5.588179"></trkpt>
    <trkpt lat="51.516957" lon="5.588329"></trkpt>
    <trkpt lat="51.516977" lon="5.588994"></trkpt>
    <trkpt lat="51.515676" lon="5.590415"></trkpt>
    <trkpt lat="51.515655" lon="5.591799"></trkpt>
    <trkpt lat="51.515295" lon="5.592443"></trkpt>
    <trkpt lat="51.516584" lon="5.594114"></trkpt>
    <trkpt lat="51.517271" lon="5.594409"></trkpt>
    <trkpt lat="51.517727" lon="5.594812"></trkpt>
    <trkpt lat="51.517727" lon="5.594812"></trkpt>
    <trkpt lat="51.518111" lon="5.596819"></trkpt>
    <trkpt lat="51.518399" lon="5.598325"></trkpt>
    <trkpt lat="51.518687" lon="5.59983"></trkpt>
    <trkpt lat="51.518975" lon="5.601336"></trkpt>
    <trkpt lat="51.519262" lon="5.602841"></trkpt>
    <trkpt lat="51.519382" lon="5.604343"></trkpt>
    <trkpt lat="51.518581" lon="5.605051"></trkpt>
    <trkpt lat="51.51814" lon="5.606703"></trkpt>
    <trkpt lat="51.516978" lon="5.606403"></trkpt>
    <trkpt lat="51.51577" lon="5.606929"></trkpt>
    <trkpt lat="51.51467" lon="5.606915"></trkpt>
    <trkpt lat="51.51357" lon="5.606901"></trkpt>
    <trkpt lat="51.51357" lon="5.606901"></trkpt>
    <trkpt lat="51.513581" lon="5.608983"></trkpt>
    <trkpt lat="51.513581" lon="5.608983"></trkpt>
    <trkpt lat="51.513667" lon="5.609245"></trkpt>
    <trkpt lat="51.513672" lon="5.611074"></trkpt>
    <trkpt lat="51.513764" lon="5.613714"></trkpt>
    <trkpt lat="51.513855" lon="5.616353"></trkpt>
    <trkpt lat="51.514146" lon="5.618311"></trkpt>
    <trkpt lat="51.514436" lon="5.620269"></trkpt>
    <trkpt lat="51.514768" lon="5.622029"></trkpt>
    <trkpt lat="51.515099" lon="5.623788"></trkpt>
    <trkpt lat="51.515099" lon="5.623788"></trkpt>
    <trkpt lat="51.51542" lon="5.625284"></trkpt>
    <trkpt lat="51.515366" lon="5.625681"></trkpt>
    <trkpt lat="51.514345" lon="5.626749"></trkpt>
    <trkpt lat="51.513323" lon="5.627816"></trkpt>
    <trkpt lat="51.512555" lon="5.628439"></trkpt>
    <trkpt lat="51.511767" lon="5.630126"></trkpt>
    <trkpt lat="51.511177" lon="5.631392"></trkpt>
    <trkpt lat="51.510586" lon="5.632657"></trkpt>
    <trkpt lat="51.509995" lon="5.633922"></trkpt>
    <trkpt lat="51.509404" lon="5.635187"></trkpt>
    <trkpt lat="51.509156" lon="5.635294"></trkpt>
    <trkpt lat="51.509674" lon="5.637694"></trkpt>
    <trkpt lat="51.509674" lon="5.637694"></trkpt>
    <trkpt lat="51.510063" lon="5.638969"></trkpt>
    <trkpt lat="51.510348" lon="5.640431"></trkpt>
    <trkpt lat="51.510633" lon="5.641892"></trkpt>
    <trkpt lat="51.510918" lon="5.643354"></trkpt>
    <trkpt lat="51.511202" lon="5.644815"></trkpt>
    <trkpt lat="51.511582" lon="5.646763"></trkpt>
    <trkpt lat="51.511642" lon="5.64922"></trkpt>
    <trkpt lat="51.512367" lon="5.650325"></trkpt>
    <trkpt lat="51.512587" lon="5.651264"></trkpt>
    <trkpt lat="51.512587" lon="5.651264"></trkpt>
    <trkpt lat="51.511132" lon="5.651975"></trkpt>
    <trkpt lat="51.509676" lon="5.652686"></trkpt>
    <trkpt lat="51.508765" lon="5.652882"></trkpt>
    <trkpt lat="51.507853" lon="5.653077"></trkpt>
    <trkpt lat="51.506903" lon="5.65304"></trkpt>
    <trkpt lat="51.505952" lon="5.653002"></trkpt>
    <trkpt lat="51.505002" lon="5.652965"></trkpt>
    <trkpt lat="51.504051" lon="5.652927"></trkpt>
    <trkpt lat="51.504051" lon="5.652927"></trkpt>
    <trkpt lat="51.503078" lon="5.652878"></trkpt>
    <trkpt lat="51.502104" lon="5.652828"></trkpt>
    <trkpt lat="51.50113" lon="5.652778"></trkpt>
    <trkpt lat="51.500156" lon="5.652728"></trkpt>
    <trkpt lat="51.499183" lon="5.652679"></trkpt>
    <trkpt lat="51.498209" lon="5.652629"></trkpt>
    <trkpt lat="51.497235" lon="5.652579"></trkpt>
    <trkpt lat="51.496261" lon="5.652529"></trkpt>
  </trkseg>
</trk>
</gpx>